{
    "type": "FeatureCollection",
    "features": [
        {
            "type": "Feature",
            "properties": {},
            "geometry": {
                "coordinates": [
                    -81.36588837103685,
                    42.242309732588126
                ],
                "type": "Point"
            }
        },
        {
            "type": "Feature",
            "properties": {},
            "geometry": {
                "coordinates": [
                    -80.77248459680594,
                    42.1838784204125
                ],
                "type": "Point"
            }
        },
        {
            "type": "Feature",
            "properties": {},
            "geometry": {
                "coordinates": [
                    -81.4927603895497,
                    42.96924260540226
                ],
                "type": "Point"
            }
        },
        {
            "type": "Feature",
            "properties": {},
            "geometry": {
                "coordinates": [
                    -80.45704257888741,
                    43.00937083157342
                ],
                "type": "Point"
            }
        }
    ]
}